{
  "type": "FeatureCollection",
  "features": [
    {
      "type": "Feature",
      "properties": {
        "norad_id": 66739,
        "name": "FLOCK 4H-36",
        "group": "last-30-days",
        "lat": 74.83944901851635,
        "lon": -80.15574232420191,
        "alt_km": 504.1174688817173,
        "timestamp": "2025-12-25T09:48:51.004901+00:00",
        "meta_object_name": "FLOCK 4H-36",
        "meta_object_id": "2025-276CB",
        "meta_epoch": "2025-12-25T01:27:03.438144",
        "meta_mean_motion": 15.18019737,
        "meta_eccentricity": 0.0002578,
        "meta_inclination": 97.4446,
        "meta_ra_of_asc_node": 70.6468,
        "meta_arg_of_pericenter": 175.1813,
        "meta_mean_anomaly": 184.9446,
        "meta_ephemeris_type": 0,
        "meta_classification_type": "U",
        "meta_norad_cat_id": 66739,
        "meta_element_set_no": 999,
        "meta_rev_at_epoch": 399,
        "meta_bstar": 0.00036311,
        "meta_mean_motion_dot": 7.322e-05,
        "meta_mean_motion_ddot": 0,
        "tle_line1": "1 66739U 25276CB  25359.06045646  .00007322  00000+0  36311-3 0  9998",
        "tle_line2": "2 66739  97.4446  70.6468 0002578 175.1813 184.9446 15.18019737  3995"
      },
      "geometry": {
        "type": "Point",
        "coordinates": [
          -80.15574232420191,
          74.83944901851635
        ]
      }
    },
    {
      "type": "Feature",
      "properties": {
        "norad_id": 66740,
        "name": "TRANSPORTER-15CC",
        "group": "last-30-days",
        "lat": 72.90268423802272,
        "lon": 45.82394758537262,
        "alt_km": 506.9487897143663,
        "timestamp": "2025-12-25T09:48:51.004911+00:00",
        "meta_object_name": "TRANSPORTER-15CC",
        "meta_object_id": "2025-276CC",
        "meta_epoch": "2025-12-25T03:09:27.132192",
        "meta_mean_motion": 15.17748965,
        "meta_eccentricity": 0.0002181,
        "meta_inclination": 97.4407,
        "meta_ra_of_asc_node": 70.6949,
        "meta_arg_of_pericenter": 225.4206,
        "meta_mean_anomaly": 134.685,
        "meta_ephemeris_type": 0,
        "meta_classification_type": "U",
        "meta_norad_cat_id": 66740,
        "meta_element_set_no": 999,
        "meta_rev_at_epoch": 400,
        "meta_bstar": 0.00054275,
        "meta_mean_motion_dot": 0.00010898,
        "meta_mean_motion_ddot": 0,
        "tle_line1": "1 66740U 25276CC  25359.13156403  .00010898  00000+0  54275-3 0  9993",
        "tle_line2": "2 66740  97.4407  70.6949 0002181 225.4206 134.6850 15.17748965  4008"
      },
      "geometry": {
        "type": "Point",
        "coordinates": [
          45.82394758537262,
          72.90268423802272
        ]
      }
    },
    {
      "type": "Feature",
      "properties": {
        "norad_id": 66741,
        "name": "TRANSPORTER-15CD",
        "group": "last-30-days",
        "lat": 67.18600824412549,
        "lon": 52.8563357855286,
        "alt_km": 507.08692001334293,
        "timestamp": "2025-12-25T09:48:51.004921+00:00",
        "meta_object_name": "TRANSPORTER-15CD",
        "meta_object_id": "2025-276CD",
        "meta_epoch": "2025-12-24T22:26:13.477344",
        "meta_mean_motion": 15.17640949,
        "meta_eccentricity": 0.000114,
        "meta_inclination": 97.4404,
        "meta_ra_of_asc_node": 70.4905,
        "meta_arg_of_pericenter": 216.246,
        "meta_mean_anomaly": 143.8696,
        "meta_ephemeris_type": 0,
        "meta_classification_type": "U",
        "meta_norad_cat_id": 66741,
        "meta_element_set_no": 999,
        "meta_rev_at_epoch": 397,
        "meta_bstar": 0.00032228,
        "meta_mean_motion_dot": 6.42e-05,
        "meta_mean_motion_ddot": 0,
        "tle_line1": "1 66741U 25276CD  25358.93487821  .00006420  00000+0  32228-3 0  9992",
        "tle_line2": "2 66741  97.4404  70.4905 0001140 216.2460 143.8696 15.17640949  3978"
      },
      "geometry": {
        "type": "Point",
        "coordinates": [
          52.8563357855286,
          67.18600824412549
        ]
      }
    },
    {
      "type": "Feature",
      "properties": {
        "norad_id": 66742,
        "name": "TRANSPORTER-15CE",
        "group": "last-30-days",
        "lat": 75.46367161390378,
        "lon": 40.69477978784527,
        "alt_km": 505.78773834752246,
        "timestamp": "2025-12-25T09:48:51.004931+00:00",
        "meta_object_name": "TRANSPORTER-15CE",
        "meta_object_id": "2025-276CE",
        "meta_epoch": "2025-12-25T03:08:40.960032",
        "meta_mean_motion": 15.17729922,
        "meta_eccentricity": 0.0001833,
        "meta_inclination": 97.4399,
        "meta_ra_of_asc_node": 70.6847,
        "meta_arg_of_pericenter": 179.683,
        "meta_mean_anomaly": 180.4406,
        "meta_ephemeris_type": 0,
        "meta_classification_type": "U",
        "meta_norad_cat_id": 66742,
        "meta_element_set_no": 999,
        "meta_rev_at_epoch": 400,
        "meta_bstar": 0.00048374,
        "meta_mean_motion_dot": 9.699e-05,
        "meta_mean_motion_ddot": 0,
        "tle_line1": "1 66742U 25276CE  25359.13102963  .00009699  00000+0  48374-3 0  9997",
        "tle_line2": "2 66742  97.4399  70.6847 0001833 179.6830 180.4406 15.17729922  4001"
      },
      "geometry": {
        "type": "Point",
        "coordinates": [
          40.69477978784527,
          75.46367161390378
        ]
      }
    },
    {
      "type": "Feature",
      "properties": {
        "norad_id": 66743,
        "name": "TRANSPORTER-15CF",
        "group": "last-30-days",
        "lat": 53.88804550512045,
        "lon": 60.63307076275422,
        "alt_km": 509.3972718680334,
        "timestamp": "2025-12-25T09:48:51.004943+00:00",
        "meta_object_name": "TRANSPORTER-15CF",
        "meta_object_id": "2025-276CF",
        "meta_epoch": "2025-12-24T17:44:58.609536",
        "meta_mean_motion": 15.17443777,
        "meta_eccentricity": 0.00025269,
        "meta_inclination": 97.4332,
        "meta_ra_of_asc_node": 70.2853,
        "meta_arg_of_pericenter": 263.2405,
        "meta_mean_anomaly": 96.8541,
        "meta_ephemeris_type": 0,
        "meta_classification_type": "U",
        "meta_norad_cat_id": 66743,
        "meta_element_set_no": 999,
        "meta_rev_at_epoch": 394,
        "meta_bstar": 0.008927038,
        "meta_mean_motion_dot": 0.00182978,
        "meta_mean_motion_ddot": 0,
        "tle_line1": "1 66743U 25276CF  25358.73956724  .00182978  00000+0  89270-2 0  9996",
        "tle_line2": "2 66743  97.4332  70.2853 0002526 263.2405  96.8541 15.17443777  3943"
      },
      "geometry": {
        "type": "Point",
        "coordinates": [
          60.63307076275422,
          53.88804550512045
        ]
      }
    },
    {
      "type": "Feature",
      "properties": {
        "norad_id": 66744,
        "name": "TRANSPORTER-15CG",
        "group": "last-30-days",
        "lat": 73.80786728702611,
        "lon": 44.39331172280553,
        "alt_km": 515.9403995759794,
        "timestamp": "2025-12-25T09:48:51.004953+00:00",
        "meta_object_name": "TRANSPORTER-15CG",
        "meta_object_id": "2025-276CG",
        "meta_epoch": "2025-12-25T03:09:31.796064",
        "meta_mean_motion": 15.19341003,
        "meta_eccentricity": 0.002432,
        "meta_inclination": 97.3868,
        "meta_ra_of_asc_node": 70.659,
        "meta_arg_of_pericenter": 231.5349,
        "meta_mean_anomaly": 128.3704,
        "meta_ephemeris_type": 0,
        "meta_classification_type": "U",
        "meta_norad_cat_id": 66744,
        "meta_element_set_no": 999,
        "meta_rev_at_epoch": 400,
        "meta_bstar": 0.00064815,
        "meta_mean_motion_dot": 0.00013749,
        "meta_mean_motion_ddot": 0,
        "tle_line1": "1 66744U 25276CG  25359.13161801  .00013749  00000+0  64815-3 0  9994",
        "tle_line2": "2 66744  97.3868  70.6590 0024320 231.5349 128.3704 15.19341003  4001"
      },
      "geometry": {
        "type": "Point",
        "coordinates": [
          44.39331172280553,
          73.80786728702611
        ]
      }
    },
    {
      "type": "Feature",
      "properties": {
        "norad_id": 66745,
        "name": "TRANSPORTER-15CH",
        "group": "last-30-days",
        "lat": 52.71372229855926,
        "lon": 61.067698975714194,
        "alt_km": 509.428728764422,
        "timestamp": "2025-12-25T09:48:51.004963+00:00",
        "meta_object_name": "TRANSPORTER-15CH",
        "meta_object_id": "2025-276CH",
        "meta_epoch": "2025-12-25T03:14:57.016896",
        "meta_mean_motion": 15.1740679,
        "meta_eccentricity": 0.0001208,
        "meta_inclination": 97.4405,
        "meta_ra_of_asc_node": 70.682,
        "meta_arg_of_pericenter": 194.3768,
        "meta_mean_anomaly": 165.7431,
        "meta_ephemeris_type": 0,
        "meta_classification_type": "U",
        "meta_norad_cat_id": 66745,
        "meta_element_set_no": 999,
        "meta_rev_at_epoch": 400,
        "meta_bstar": 0.00015456,
        "meta_mean_motion_dot": 3.023e-05,
        "meta_mean_motion_ddot": 0,
        "tle_line1": "1 66745U 25276CH  25359.13538214  .00003023  00000+0  15456-3 0  9992",
        "tle_line2": "2 66745  97.4405  70.6820 0001208 194.3768 165.7431 15.17406790  4002"
      },
      "geometry": {
        "type": "Point",
        "coordinates": [
          61.067698975714194,
          52.71372229855926
        ]
      }
    }
  ]
}